[
    {
        "Altitude(m)": 624792.7957914411,
        "Argument of Periapsis(deg)": 0.0,
        "Eccentricity": 0.0,
        "Inclination(deg)": 60.0,
        "Latitude(deg)": -59.147159480940616,
        "Longitude(deg)": -35.97347209184263,
        "Mean Anomaly(deg)": -98.18179999999998,
        "RAAN(deg)": 170.00000000000003,
        "Satellite Name": "Test1 764",
        "Satellite Number": 764,
        "Semi-Major Axis(m)": 6980739.136638005,
        "Time(s)": 0
    },
    {
        "Altitude(m)": 624842.1872710142,
        "Argument of Periapsis(deg)": 0.00010418945913296404,
        "Eccentricity": 0.0,
        "Inclination(deg)": 60.0,
        "Latitude(deg)": -59.289241576404365,
        "Longitude(deg)": -34.84396496262498,
        "Mean Anomaly(deg)": -97.56169385453813,
        "RAAN(deg)": 169.99957995086027,
        "Satellite Name": "Test1 764",
        "Satellite Number": 764,
        "Semi-Major Axis(m)": 6980739.136638005,
        "Time(s)": 10
    }
]